#aV2007  2 18  0  0   .00000000      96 DD+AD WGS84 FIT  NGA
## 1415       .00000000   900.00000000 54149  .0000000000000
+   30     1  2  3  4  5  6  7  8  9 10 11 12 13 14 16 17 18
+         19 20 21 22 23 24 25 26 27 28 29 30 31  0  0  0  0
+          0  0  0  0  0  0  0  0  0  0  0  0  0  0  0  0  0
+          0  0  0  0  0  0  0  0  0  0  0  0  0  0  0  0  0
+          0  0  0  0  0  0  0  0  0  0  0  0  0  0  0  0  0
++         0  0  0  0  0  0  0  0  0  0  0  0  0  0  0  0  0
++         0  0  0  0  0  0  0  0  0  0  0  0  0  0  0  0  0
++         0  0  0  0  0  0  0  0  0  0  0  0  0  0  0  0  0
++         0  0  0  0  0  0  0  0  0  0  0  0  0  0  0  0  0
++         0  0  0  0  0  0  0  0  0  0  0  0  0  0  0  0  0
%c cc cc ccc ccc cccc cccc cccc cccc ccccc ccccc ccccc ccccc
%c cc cc ccc ccc cccc cccc cccc cccc ccccc ccccc ccccc ccccc
%f  0.0000000  0.000000000  0.00000000000  0.000000000000000
%f  0.0000000  0.000000000  0.00000000000  0.000000000000000
%i    0    0    0    0      0      0      0      0         0
%i    0    0    0    0      0      0      0      0         0
/*      NGA, ST. LOUIS,MO.                                  
/*   EPHEMERIS COMPUTED FROM  3 DAYS OF DATA                
/* CCCCCCCCCCCCCCCCCCCCCCCCCCCCCCCCCCCCCCCCCCCCCCCCCCCCCCCCC
/* CCCCCCCCCCCCCCCCCCCCCCCCCCCCCCCCCCCCCCCCCCCCCCCCCCCCCCCCC
*  2007  2 18 19 45   .00000000                                                 
P  1 -14337.522509  19855.858624  -9996.497473    108.624891                    
V  1   2825.662816 -12794.566442 -28925.241955       .024269                    
P  2  18712.950596 -13521.576965  12667.996296     83.502261                    
V  2  16819.730479   -802.273814 -25492.111084       .033170                    
P  3 -10858.255983  22692.348837   7784.986454     15.829008                    
V  3  -1694.447218 -10896.400500  28982.066820       .058893                    
P  4  26143.824967  -5688.306161    518.542445      4.511666                    
V  4   1304.641853   2758.501148 -31184.239736       .018698                    
P  5 -11962.982134 -21488.045971 -10456.107678     37.315794                    
V  5  11441.695941   6675.061956 -27263.481085       .054086                    
P  6  -9256.311479 -17099.304206  18257.399206     37.253282                    
V  6   7999.813851 -21561.748868 -16357.017492       .257120                    
P  7 -11768.521493 -13494.692280  19934.510832    411.336345                    
V  7   7338.400145 -23616.350328 -11940.361947      -.124952                    
P  8  25283.798682   1533.810678   8578.663119    -97.188982                    
V  8 -10446.850024   3647.287984  29305.043106      -.013853                    
P  9    364.263366 -15797.060823 -21905.671506     58.147036                    
V  9  25742.496189  -6165.830918   5239.242769       .015890                    
P 10   6743.499054 -14324.506741  21162.549040     97.668947                    
V 10  18388.017661  19997.756380   7955.562629       .005534                    
P 11   3090.752705  16573.754156 -20601.191185      7.637049                    
V 11 -24684.852091   9013.386051   3857.269052       .012941                    
P 12  -9657.633625 -22060.334360 -11144.542533    -49.750110                    
V 12  11424.497387   8926.341771 -27261.828084       .031913                    
P 13   9060.276763  14233.397751  20433.042040    144.935572                    
V 13  -9352.386881  24329.421926 -12697.497379       .039635                    
P 14 -15972.098054   5000.290040 -20523.479555      8.693193                    
V 14   7654.297486 -25062.165944 -12077.672620       .013757                    
P 16 -12101.189682   9234.065093  21851.642543    123.540771                    
V 16 -18239.500630 -20627.421147  -1259.170265       .035881                    
P 17  16386.229665  -4089.516833 -20468.822148     78.274111                    
V 17  -7040.755251  25076.931894 -10764.032961      -.014269                    
P 18 -19956.377701 -16398.112921  -6746.028646   -253.634652                    
V 18  -3554.161114  -8332.151379  29854.861848       .002037                    
P 19  -7779.790492  25185.918657  -2690.557962      6.274372                    
V 19  -4070.234277   2217.563501  31507.215181       .041001                    
P 20  11210.605042  22108.928154  -9694.303196    -22.440644                    
V 20 -10238.888501  -7092.588499 -28254.154486      -.001709                    
P 21 -21647.705953  -6707.080954  14385.735560     71.603485                    
V 21  17244.055356  -5390.443532  23037.483938       .009540                    
P 22 -19999.154089  -6094.587715 -16236.585548    168.118107                    
V 22 -11714.629074 -17459.511362  20764.985180       .019029                    
P 23   2413.069664  22668.413588  13386.724745    150.599902                    
V 23  -7258.042660  15727.561592 -25360.685333       .016992                    
P 24  -4422.900735 -14836.580391  21776.710752     78.483490                    
V 24  26779.565256  -4769.932471   2503.353100       .031353                    
P 25 -17366.923501  15463.438081  13405.799483    339.512820                    
V 25 -16161.511512   2989.292516 -24977.363299      -.176324                    
P 26   7810.937496 -25025.526517  -1531.492571    -49.721176                    
V 26   2648.744441   -609.112385  32748.248811      -.186193                    
P 27  19730.672478   6858.981066  17200.599535     94.868738                    
V 27 -19346.484469   6959.182222  19922.243067       .021126                    
P 28  20823.622072   9978.108422 -13112.262838      7.072792                    
V 28   9630.755608  14208.313066  25139.088107      -.008599                    
P 29  10306.333472 -23975.839589   3984.305571    352.394744                    
V 29    626.430273   5248.822818  32065.237611       .092540                    
P 30 -17858.437122 -19709.000429  -1451.943452     25.762327                    
V 30   3301.649067  -1162.670820 -31284.324320       .010506                    
P 31 -25228.807510   7874.930271   3133.419604      9.391761                    
V 31  -4231.905408  -1853.388450 -31386.909736       .035182                    
EOF
